2022-023F               
1 51951U 22023F   26181.84704326  .00005860  00000+0  23867-3 0  9999
2 51951  63.4437 227.0425 0131828 341.9715  17.6743 15.17958647239785
MERIDIAN 10             
1 52145U 22030A   26180.43169381  .00000154  00000+0  00000+0 0  9994
2 52145  62.6792 139.4650 6787270 272.8510  17.6292  2.00612153 31271
OMNI-L1                 
1 52157U 22033A   26181.67537565  .00001976  00000+0  25075-3 0  9996
2 52157  97.8397 260.5907 0004170 228.4975 131.5881 14.82797629229457
ENMAP                   
1 52159U 22033C   26181.86887410  .00000577  00000+0  93335-4 0  9997
2 52159  97.9800 263.9246 0001487  75.8598 284.2776 14.74931116228679
ARCSAT-1                
1 52161U 22033E   26181.71440564  .00012861  00000+0  20073-3 0  9996
2 52161  97.2762 274.1907 0005973 137.1636 223.0084 15.53938307237804
GLOBAL-18               
1 52196U 22034B   26181.50291632  .00015999  00000+0  32267-3 0  9995
2 52196  52.9789 192.9774 0003832 338.7712  21.3134 15.46719227239025
GAOFEN-3 03             
1 52200U 22035A   26181.89714135 -.00000204  00000+0 -48797-4 0  9993
2 52200  98.4056 190.2781 0001586  97.2801 262.8568 14.42215892222829
DAQI-1                  
1 52257U 22039A   26181.87392880  .00000044  00000+0  19574-4 0  9997
2 52257  98.1487 120.4434 0002877 192.4235 167.6894 14.57684512223931
BRO-6                   
1 52422U 22047AE  26181.81548690  .00043562  00000+0  73627-3 0  9996
2 52422  97.3405 273.1399 0003830  26.8717 333.2733 15.51476037233263
JILIN-1 GAOFEN 3D27     
1 52444U 22048B   26181.79837284  .00149634  00000+0  84417-3 0  9994
2 52444  97.5727 297.0015 0002998 284.5665  75.5269 15.78733692231625
JILIN-1 GAOFEN 3D28     
1 52445U 22048C   26181.76864295  .00185914  00000+0  87996-3 0  9990
2 52445  97.5662 297.1807 0002593 263.0535  97.0438 15.82496080231677
VIGORIDE-3              
1 52760U 22057AE  26181.71277317  .00005515  00000+0  20819-3 0  9997
2 52760  97.6623 322.0471 0009659  79.6381 280.5946 15.27417101227225
ION SCV-006             
1 52761U 22057AF  26181.37380477  .00011632  00000+0  24222-3 0  9991
2 52761  97.6114 330.6311 0017968  69.0514 291.2655 15.45600033228159
SHERPA-AC1              
1 52763U 22057AH  26181.41883457  .00007206  00000+0  20493-3 0  9992
2 52763  97.6699 331.1985 0008437  53.0364 307.1651 15.36444645227730
OMNI-L2                 
1 52771U 22057AR  26181.63172275  .00001398  00000+0  18475-3 0  9997
2 52771  97.4710 243.0866 0005093 281.7749  78.2894 14.81404716222387
STEP CUBE LAB-II        
1 52897U 22065D   26181.81165627  .00000878  00000+0  17931-3 0  9996
2 52897  98.2240 325.6718 0008381 351.6913   8.4148 14.63324208213495
RANDEV                  
1 52898U 22065E   26181.87748775  .00000814  00000+0  16565-3 0  9996
2 52898  98.2225 326.0954 0007705 352.6567   7.4521 14.63712069213255
SNUGLITE-II             
1 52899U 22065F   26181.35537677  .00000965  00000+0  19174-3 0  9993
2 52899  98.2217 326.1635 0007094 352.7825   7.3274 14.64371015212923
MIMAN                   
1 52900U 22065G   26181.80614980  .00000589  00000+0  12739-3 0  9991
2 52900  98.2278 324.2210 0007284 353.6126   6.4981 14.61858309212430
STARLINK-4362           
1 53043U 22077A   26181.49083610 -.00001485  00000+0 -99017-4 0  9991
2 53043  97.2939 359.7573 0001967  82.9111 277.2340 15.05661044217883
LARES-2                 
1 53105U 22080A   26177.40365794 -.00000028  00000+0  00000+0 0  9996
2 53105  70.1592 302.1681 0005264 334.1364  25.8897  6.38965133 92253
GREENCUBE (IO-117)      
1 53109U 22080E   26181.72466669 -.00000003  00000+0  00000+0 0  9996
2 53109  70.1437 293.5372 0008959 286.6703  73.2973  6.42583253 92938
STARLINK-4410           
1 53204U 22084R   26181.83335647  .00149037  00000+0  39587-2 0  9994
2 53204  97.6013 243.3252 0001443  85.2903 220.1949 15.37670693  5887
COSMOS 2558             
1 53323U 22089A   26181.79310513  .00130056  00000+0  75689-3 0  9996
2 53323  97.2260 286.4389 0002646 245.3507 114.7485 15.78092571219971
TECMS                   
1 53346U 22090A   26181.83893462  .00003854  00000+0  17426-3 0  9997
2 53346  97.3135 249.5623 0004688 136.5742 223.5864 15.21498756216889
DONGPO 02               
1 53452U 22098J   26181.82908896  .00130546  00000+0  77854-3 0  9990
2 53452  97.5535 314.2308 0003689 243.1844 116.9044 15.77534202216941
DONGPO 01               
1 53453U 22098K   26181.33155598  .00184573  00000+0  12252-2 0  9999
2 53453  97.5604 314.1803 0001922 238.4667 121.6410 15.74932834216823
STARLINK-4400           
1 53468U 22099D   26181.80236630  .00000848  00000+0  62693-4 0  9993
2 53468  97.2905 300.1328 0001742 134.6967 225.4402 15.05653847212993
