OBJECT_NAME,OBJECT_ID,EPOCH,MEAN_MOTION,ECCENTRICITY,INCLINATION,RA_OF_ASC_NODE,ARG_OF_PERICENTER,MEAN_ANOMALY,EPHEMERIS_TYPE,CLASSIFICATION_TYPE,NORAD_CAT_ID,ELEMENT_SET_NO,REV_AT_EPOCH,BSTAR,MEAN_MOTION_DOT,MEAN_MOTION_DDOT
2022-023F,2022-023F,2026-06-30T20:19:44.537664,15.17958647,.0131828,63.4437,227.0425,341.9715,17.6743,0,U,51951,999,23978,.23867E-3,.586E-4,0
MERIDIAN 10,2022-030A,2026-06-29T10:21:38.345184,2.00612153,.67872702,62.6792,139.4650,272.8510,17.6292,0,U,52145,999,3127,0,.154E-5,0
OMNI-L1,2022-033A,2026-06-30T16:12:32.456160,14.82797629,.000417,97.8397,260.5907,228.4975,131.5881,0,U,52157,999,22945,.25075E-3,.1976E-4,0
ENMAP,2022-033C,2026-06-30T20:51:10.722240,14.74931116,.0001487,97.9800,263.9246,75.8598,284.2776,0,U,52159,999,22867,.93335E-4,.577E-5,0
ARCSAT-1,2022-033E,2026-06-30T17:08:44.647296,15.53938307,.0005973,97.2762,274.1907,137.1636,223.0084,0,U,52161,999,23780,.20073E-3,.12861E-3,0
GLOBAL-18,2022-034B,2026-06-30T12:04:11.970048,15.46719227,.0003832,52.9789,192.9774,338.7712,21.3134,0,U,52196,999,23902,.32267E-3,.15999E-3,0
GAOFEN-3 03,2022-035A,2026-06-30T21:31:53.012640,14.42215892,.0001586,98.4056,190.2781,97.2801,262.8568,0,U,52200,999,22282,-.48797E-4,-.204E-5,0
DAQI-1,2022-039A,2026-06-30T20:58:27.448320,14.57684512,.0002877,98.1487,120.4434,192.4235,167.6894,0,U,52257,999,22393,.19574E-4,.44E-6,0
BRO-6,2022-047AE,2026-06-30T19:34:18.068160,15.51476037,.000383,97.3405,273.1399,26.8717,333.2733,0,U,52422,999,23326,.73627E-3,.43562E-3,0
JILIN-1 GAOFEN 3D27,2022-048B,2026-06-30T19:09:39.413376,15.78733692,.0002998,97.5727,297.0015,284.5665,75.5269,0,U,52444,999,23162,.84417E-3,.149634E-2,0
JILIN-1 GAOFEN 3D28,2022-048C,2026-06-30T18:26:50.750880,15.82496080,.0002593,97.5662,297.1807,263.0535,97.0438,0,U,52445,999,23167,.87996E-3,.185914E-2,0
VIGORIDE-3,2022-057AE,2026-06-30T17:06:23.601888,15.27417101,.0009659,97.6623,322.0471,79.6381,280.5946,0,U,52760,999,22722,.20819E-3,.5515E-4,0
ION SCV-006,2022-057AF,2026-06-30T08:58:16.732128,15.45600033,.00179685,97.6114,330.6311,69.0514,291.2655,0,U,52761,999,22815,.24221939E-3,.11632E-3,0
SHERPA-AC1,2022-057AH,2026-06-30T10:03:07.306848,15.36444645,.00084375,97.6699,331.1985,53.0364,307.1651,0,U,52763,999,22773,.20492823E-3,.7206E-4,0
OMNI-L2,2022-057AR,2026-06-30T15:09:40.845600,14.81404716,.0005093,97.4710,243.0866,281.7749,78.2894,0,U,52771,999,22238,.18475E-3,.1398E-4,0
STEP CUBE LAB-II,2022-065D,2026-06-30T19:28:47.101728,14.63324208,.0008381,98.2240,325.6718,351.6913,8.4148,0,U,52897,999,21349,.17931E-3,.878E-5,0
RANDEV,2022-065E,2026-06-30T21:03:34.941600,14.63712069,.0007705,98.2225,326.0954,352.6567,7.4521,0,U,52898,999,21325,.16565E-3,.814E-5,0
SNUGLITE-II,2022-065F,2026-06-30T08:31:44.552928,14.64371015,.00070942,98.2217,326.1635,352.7825,7.3274,0,U,52899,999,21292,.19173526E-3,.965E-5,0
MIMAN,2022-065G,2026-06-30T19:20:51.342720,14.61858309,.0007284,98.2278,324.2210,353.6126,6.4981,0,U,52900,999,21243,.12739E-3,.589E-5,0
STARLINK-4362,2022-077A,2026-06-30T11:46:48.239040,15.05661044,.00019672,97.2939,359.7573,82.9111,277.2340,0,U,53043,999,21788,-.99016867E-4,-.1485E-4,0
LARES-2,2022-080A,2026-06-26T09:41:16.046016,6.38965133,.0005264,70.1592,302.1681,334.1364,25.8897,0,U,53105,999,9225,0,-.28E-6,0
GREENCUBE (IO-117),2022-080E,2026-06-30T17:23:31.202016,6.42583253,.0008959,70.1437,293.5372,286.6703,73.2973,0,U,53109,999,9293,0,-.3E-7,0
STARLINK-4410,2022-084R,2026-06-30T20:00:01.999008,15.37670693,.0001443,97.6013,243.3252,85.2903,220.1949,0,U,53204,999,588,.39587E-2,.149037E-2,0
COSMOS 2558,2022-089A,2026-06-30T19:02:04.283232,15.78092571,.0002646,97.2260,286.4389,245.3507,114.7485,0,U,53323,999,21997,.75689E-3,.130056E-2,0
TECMS,2022-090A,2026-06-30T20:08:03.951168,15.21498756,.0004688,97.3135,249.5623,136.5742,223.5864,0,U,53346,999,21688,.17426E-3,.3854E-4,0
DONGPO 02,2022-098J,2026-06-30T19:53:53.286144,15.77534202,.0003689,97.5535,314.2308,243.1844,116.9044,0,U,53452,999,21694,.77854E-3,.130546E-2,0
DONGPO 01,2022-098K,2026-06-30T07:57:26.436672,15.74932834,.00019229,97.5604,314.1803,238.4667,121.6410,0,U,53453,999,21682,.12251604E-2,.184573E-2,0
STARLINK-4400,2022-099D,2026-06-30T19:15:24.448320,15.05653847,.0001742,97.2905,300.1328,134.6967,225.4402,0,U,53468,999,21299,.62693E-4,.848E-5,0
